CUBEBUG-2 (LO-74)       
1 39440U 13066AA  26156.80918561  .00005560  00000+0  51354-3 0  9990
2 39440  97.8908 105.7402 0059434  65.9901 294.7524 14.93668030675299
FUNCUBE-1 (AO-73)       
1 39444U 13066AE  26158.17904856  .00007594  00000+0  47302-3 0  9995
2 39444  97.8278 129.4171 0034673 235.9808 123.8126 15.09372001678158
UWE-3                   
1 39446U 13066AG  26157.65461373  .00005074  00000+0  43622-3 0  9993
2 39446  97.8693 113.6587 0049030 356.7161   3.3731 14.96941234676005
UNISAT-6                
1 40012U 14033C   26158.24964816  .00003835  00000+0  41357-3 0  9991
2 40012  97.7873 311.1381 0046462 101.0918 259.5528 14.88193278644685
DUCHIFAT-1              
1 40021U 14033M   26158.42229156  .00098660  00000+0  10915-2 0  9997
2 40021  98.0450 216.2271 0004554 133.9482 226.2150 15.62679901654227
QB50P1                  
1 40025U 14033R   26158.26366557  .00008812  00000+0  43536-3 0  9996
2 40025  98.0971 168.7150 0007082 255.6784 104.3662 15.18108574651520
LILACSAT-2              
1 40908U 15049K   26158.46753525  .00017970  00000+0  30945-3 0  9996
2 40908  97.4658 194.9414 0005291 292.6432  67.4260 15.51123453594248
FOX-1A (AO-85)          
1 40967U 15058D   26157.62044007  .00003329  00000+0  30158-3 0  9995
2 40967  64.7764 311.8208 0129891  60.7292 300.6731 14.90916620111990
CAS-2T & KS-1Q          
1 41847U 16066G   26158.19760566  .00002042  00000+0  29345-3 0  9998
2 41847  98.3816 234.0479 0342426 159.7048 201.8144 14.44661881503354
RADFXSAT (FOX-1B)       
1 43017U 17073E   26158.35158985  .00010183  00000+0  44421-3 0  9999
2 43017  97.4717  25.7680 0151029   3.3668 356.8542 15.12554864463900
DIWATA-2B               
1 43678U 18084H   26158.50000162  .00002860  00000+0  23247-3 0  9991
2 43678  98.1167 354.2880 0011995 202.1577 157.9129 15.00406529414769
ES'HAIL 2               
1 43700U 18090A   26158.20812331  .00000158  00000+0  00000+0 0  9996
2 43700   0.0112  38.9909 0001929  72.2005 245.1501  1.00273643 27570
FOX-1CLIFF (AO-95)      
1 43770U 18099N   26157.13129568  .00016192  00000+0  62215-3 0  9991
2 43770  97.4387 217.4205 0009175  36.3927 323.7934 15.26474352411538
ITASAT                  
1 43786U 18099AE  26158.40393815  .00007372  00000+0  35533-3 0  9990
2 43786  97.4031 210.1118 0013164  34.0108 326.1968 15.18934825411422
JY1SAT (JO-97)          
1 43803U 18099AX  26158.17735531  .00017566  00000+0  54696-3 0  9996
2 43803  97.4132 220.9790 0004222 312.4415  47.6470 15.33336023412098
UWE-4                   
1 43880U 18111E   26157.59884956  .00041427  00000+0  86289-3 0  9993
2 43880  97.5857  85.5068 0007550  22.5436 337.6143 15.45454015409146
TIANYAN 01              
1 44881U 19093C   26158.48630904  .00001171  00000+0  13817-3 0  9995
2 44881  97.7528 230.9547 0014847 115.7704 244.5045 14.86503898349972
RS-44 & BREEZE-KM R/B   
1 44909U 19096E   26157.99794810  .00000012  00000+0  79316-6 0  9993
2 44909  82.5218 346.4772 0217716 167.9357 192.7080 12.79748571301045
SALSAT                  
1 46495U 20068K   26157.74488443  .00010129  00000+0  35498-3 0  9991
2 46495  97.8851 160.1753 0009049 349.8452  10.2602 15.29647918313761
XW-3 (CAS-9)            
1 50466U 21131B   26158.54415304  .00000617  00000+0  20425-3 0  9996
2 50466  98.4975 250.9864 0005196 118.6378 241.5334 14.41349209233720
GREENCUBE (IO-117)      
1 53109U 22080E   26152.46502029 -.00000003  00000+0  00000+0 0  9996
2 53109  70.1435 303.7143 0008869 293.3663  66.6064  6.42583280 91055
UMKA 1 (RS40S)          
1 57172U 23091G   26158.42153377  .00006487  00000+0  29748-3 0  9998
2 57172  97.5052 217.1569 0013763 148.2624 211.9443 15.20705982162529
CUBESX-HSE 3 (RS42S)    
1 57178U 23091N   26158.43596972  .00014076  00000+0  47169-3 0  9997
2 57178  97.5092 223.9016 0012108 124.7115 235.5268 15.30968643162935
MONITOR-3 (RS58S)       
1 57180U 23091Q   26158.43910285  .00010975  00000+0  40776-3 0  9998
2 57180  97.5084 221.8151 0013005 130.9367 229.3000 15.27644728162803
MONITOR-4 (RS57S)       
1 57182U 23091S   26158.41872602  .00010305  00000+0  38198-3 0  9990
2 57182  97.5077 221.7651 0012959 131.3220 228.9137 15.27739335162806
MONITOR-2 (RS39S)       
1 57184U 23091U   26158.43060575  .00005853  00000+0  28393-3 0  9990
2 57184  97.5074 216.7771 0012308 141.1010 219.1112 15.18820025162471
SVYATOBOR 1 (RS60S)     
1 57187U 23091X   26158.48905715  .00008711  00000+0  33645-3 0  9994
2 57187  97.5089 222.2536 0010843 123.5259 236.7017 15.26449444162832
VIZARD-METEO (RS38S)    
1 57189U 23091Z   26158.44002566  .00016402  00000+0  47358-3 0  9996
2 57189  97.5091 227.7323 0008712 106.7839 253.4361 15.35714822163193
POLYTECH-UNIVERSE 3 (R*)
1 57191U 23091AB  26158.45909348  .00005643  00000+0  27191-3 0  9992
2 57191  97.5048 216.3100 0016208 158.1932 201.9996 15.19019463162472
UTMN 2 (RS27S)          
1 57203U 23091AP  26158.45890654  .00013701  00000+0  44773-3 0  9994
2 57203  97.5087 225.5469 0009469 112.5996 247.6248 15.31811907163053
