OBJECT_NAME,OBJECT_ID,EPOCH,MEAN_MOTION,ECCENTRICITY,INCLINATION,RA_OF_ASC_NODE,ARG_OF_PERICENTER,MEAN_ANOMALY,EPHEMERIS_TYPE,CLASSIFICATION_TYPE,NORAD_CAT_ID,ELEMENT_SET_NO,REV_AT_EPOCH,BSTAR,MEAN_MOTION_DOT,MEAN_MOTION_DDOT
CUBEBUG-2 (LO-74),2013-066AA,2026-06-05T19:25:13.636704,14.93668030,.00594347,97.8908,105.7402,65.9901,294.7524,0,U,39440,999,67529,.51354385E-3,.556E-4,0
FUNCUBE-1 (AO-73),2013-066AE,2026-06-07T04:17:49.795584,15.09372001,.0034673,97.8278,129.4171,235.9808,123.8126,0,U,39444,999,67815,.47302E-3,.7594E-4,0
UWE-3,2013-066AG,2026-06-06T15:42:38.626272,14.96941234,.00490307,97.8693,113.6587,356.7161,3.3731,0,U,39446,999,67600,.43621535E-3,.5074E-4,0
UNISAT-6,2014-033C,2026-06-07T05:59:29.601024,14.88193278,.0046462,97.7873,311.1381,101.0918,259.5528,0,U,40012,999,64468,.41357E-3,.3835E-4,0
DUCHIFAT-1,2014-033M,2026-06-07T10:08:05.990784,15.62679901,.0004554,98.0450,216.2271,133.9482,226.2150,0,U,40021,999,65422,.10915E-2,.9866E-3,0
QB50P1,2014-033R,2026-06-07T06:19:40.705248,15.18108574,.0007082,98.0971,168.7150,255.6784,104.3662,0,U,40025,999,65152,.43536E-3,.8812E-4,0
LILACSAT-2,2015-049K,2026-06-07T11:13:15.045600,15.51123453,.0005291,97.4658,194.9414,292.6432,67.4260,0,U,40908,999,59424,.30945E-3,.1797E-3,0
FOX-1A (AO-85),2015-058D,2026-06-06T14:53:26.022048,14.90916620,.01298912,64.7764,311.8208,60.7292,300.6731,0,U,40967,999,11199,.30157666E-3,.3329E-4,0
CAS-2T & KS-1Q,2016-066G,2026-06-07T04:44:33.129024,14.44661881,.0342426,98.3816,234.0479,159.7048,201.8144,0,U,41847,999,50335,.29345E-3,.2042E-4,0
RADFXSAT (FOX-1B),2017-073E,2026-06-07T08:26:17.363040,15.12554864,.0151029,97.4717,25.7680,3.3668,356.8542,0,U,43017,999,46390,.44421E-3,.10183E-3,0
DIWATA-2B,2018-084H,2026-06-07T12:00:00.139968,15.00406529,.0011995,98.1167,354.2880,202.1577,157.9129,0,U,43678,999,41476,.23247E-3,.286E-4,0
ES'HAIL 2,2018-090A,2026-06-07T04:59:41.853984,1.00273643,.0001929,0.0112,38.9909,72.2005,245.1501,0,U,43700,999,2757,0,.158E-5,0
FOX-1CLIFF (AO-95),2018-099N,2026-06-06T03:09:03.946752,15.26474352,.00091754,97.4387,217.4205,36.3927,323.7934,0,U,43770,999,41153,.62214936E-3,.16192E-3,0
ITASAT,2018-099AE,2026-06-07T09:41:40.256160,15.18934825,.0013164,97.4031,210.1118,34.0108,326.1968,0,U,43786,999,41142,.35533E-3,.7372E-4,0
JY1SAT (JO-97),2018-099AX,2026-06-07T04:15:23.498784,15.33336023,.0004222,97.4132,220.9790,312.4415,47.6470,0,U,43803,999,41209,.54696E-3,.17566E-3,0
UWE-4,2018-111E,2026-06-06T14:22:20.601984,15.45454015,.000755,97.5857,85.5068,22.5436,337.6143,0,U,43880,999,40914,.86289E-3,.41427E-3,0
TIANYAN 01,2019-093C,2026-06-07T11:40:17.101056,14.86503898,.0014847,97.7528,230.9547,115.7704,244.5045,0,U,44881,999,34997,.13817E-3,.1171E-4,0
RS-44 & BREEZE-KM R/B,2019-096E,2026-06-06T23:57:02.715840,12.79748571,.0217716,82.5218,346.4772,167.9357,192.7080,0,U,44909,999,30104,.79316E-6,.12E-6,0
SALSAT,2020-068K,2026-06-06T17:52:38.014752,15.29647918,.00090499,97.8851,160.1753,349.8452,10.2602,0,U,46495,999,31376,.35497906E-3,.10129E-3,0
XW-3 (CAS-9),2021-131B,2026-06-07T13:03:34.822656,14.41349209,.0005196,98.4975,250.9864,118.6378,241.5334,0,U,50466,999,23372,.20425E-3,.617E-5,0
GREENCUBE (IO-117),2022-080E,2026-06-01T11:09:37.753056,6.42583280,.00088692,70.1435,303.7143,293.3663,66.6064,0,U,53109,999,9105,0,-.3E-7,0
UMKA 1 (RS40S),2023-091G,2026-06-07T10:07:00.517728,15.20705982,.0013763,97.5052,217.1569,148.2624,211.9443,0,U,57172,999,16252,.29748E-3,.6487E-4,0
CUBESX-HSE 3 (RS42S),2023-091N,2026-06-07T10:27:47.783808,15.30968643,.0012108,97.5092,223.9016,124.7115,235.5268,0,U,57178,999,16293,.47169E-3,.14076E-3,0
MONITOR-3 (RS58S),2023-091Q,2026-06-07T10:32:18.486240,15.27644728,.0013005,97.5084,221.8151,130.9367,229.3000,0,U,57180,999,16280,.40776E-3,.10975E-3,0
MONITOR-4 (RS57S),2023-091S,2026-06-07T10:02:57.928128,15.27739335,.0012959,97.5077,221.7651,131.3220,228.9137,0,U,57182,999,16280,.38198E-3,.10305E-3,0
MONITOR-2 (RS39S),2023-091U,2026-06-07T10:20:04.336800,15.18820025,.0012308,97.5074,216.7771,141.1010,219.1112,0,U,57184,999,16247,.28393E-3,.5853E-4,0
SVYATOBOR 1 (RS60S),2023-091X,2026-06-07T11:44:14.537760,15.26449444,.0010843,97.5089,222.2536,123.5259,236.7017,0,U,57187,999,16283,.33645E-3,.8711E-4,0
VIZARD-METEO (RS38S),2023-091Z,2026-06-07T10:33:38.217024,15.35714822,.0008712,97.5091,227.7323,106.7839,253.4361,0,U,57189,999,16319,.47358E-3,.16402E-3,0
POLYTECH-UNIVERSE 3 (RS46S),2023-091AB,2026-06-07T11:01:05.676672,15.19019463,.0016208,97.5048,216.3100,158.1932,201.9996,0,U,57191,999,16247,.27191E-3,.5643E-4,0
UTMN 2 (RS27S),2023-091AP,2026-06-07T11:00:49.525056,15.31811907,.0009469,97.5087,225.5469,112.5996,247.6248,0,U,57203,999,16305,.44773E-3,.13701E-3,0
